ORBCOMM FM24            
1 25478U 98053D   24330.90779480  .00003564  00000+0  12375-2 0  9994
2 25478  45.0057 152.2286 0001494 248.1460 111.9229 14.37027912368196
ORBCOMM FM25            
1 25479U 98053E   24330.59821004  .00003200  00000+0  11161-2 0  9999
2 25479  45.0050 151.9471 0003304 289.0161  71.0329 14.37018386368446
ORBCOMM FM26            
1 25480U 98053F   24330.90336196  .00002982  00000+0  10598-2 0  9998
2 25480  45.0046 145.6052 0005002 320.9524  39.0962 14.36239730368414
ORBCOMM FM27            
1 25481U 98053G   24330.86588204  .00003411  00000+0  11867-2 0  9991
2 25481  45.0033 150.9328 0000992 172.9424 187.1438 14.37015745368415
ORBCOMM FM28            
1 25482U 98053H   24330.65989580  .00003612  00000+0  12462-2 0  9996
2 25482  45.0046  89.7846 0002959 331.9107  28.1581 14.37323721369065
ORBCOMM FM30            
1 25980U 99065A   24330.49821342  .00003036  00000+0  10748-2 0  9991
2 25980  45.0323 333.2420 0004915  49.7218 310.4059 14.36397151305684
ORBCOMM FM31            
1 25981U 99065B   24330.46571459  .00003066  00000+0  10856-2 0  9993
2 25981  45.0235 326.9667 0001806  68.5276 291.5764 14.36374518304704
ORBCOMM FM32            
1 25982U 99065C   24330.37562608  .00003349  00000+0  12045-2 0  9996
2 25982  45.0160 342.5885 0003574  81.5708 278.5544 14.35396354305306
