<?xml version="1.0" encoding="UTF-8"?>
<ndm xmlns:xsi="http://www.w3.org/2001/XMLSchema-instance" xsi:noNamespaceSchemaLocation="https://sanaregistry.org/r/ndmxml_unqualified/ndmxml-2.0.0-master-2.0.xsd">
<omm id="CCSDS_OMM_VERS" version="2.0">
<header><CREATION_DATE/><ORIGINATOR/></header><body><segment><metadata><OBJECT_NAME>ORBCOMM FM24</OBJECT_NAME><OBJECT_ID>1998-053D</OBJECT_ID><CENTER_NAME>EARTH</CENTER_NAME><REF_FRAME>TEME</REF_FRAME><TIME_SYSTEM>UTC</TIME_SYSTEM><MEAN_ELEMENT_THEORY>SGP4</MEAN_ELEMENT_THEORY></metadata><data><meanElements><EPOCH>2024-11-25T21:47:13.470720</EPOCH><MEAN_MOTION>14.37027912</MEAN_MOTION><ECCENTRICITY>.0001494</ECCENTRICITY><INCLINATION>45.0057</INCLINATION><RA_OF_ASC_NODE>152.2286</RA_OF_ASC_NODE><ARG_OF_PERICENTER>248.1460</ARG_OF_PERICENTER><MEAN_ANOMALY>111.9229</MEAN_ANOMALY></meanElements><tleParameters><EPHEMERIS_TYPE>0</EPHEMERIS_TYPE><CLASSIFICATION_TYPE>U</CLASSIFICATION_TYPE><NORAD_CAT_ID>25478</NORAD_CAT_ID><ELEMENT_SET_NO>999</ELEMENT_SET_NO><REV_AT_EPOCH>36819</REV_AT_EPOCH><BSTAR>.12375E-2</BSTAR><MEAN_MOTION_DOT>.3564E-4</MEAN_MOTION_DOT><MEAN_MOTION_DDOT>0</MEAN_MOTION_DDOT></tleParameters></data></segment></body></omm>
<omm id="CCSDS_OMM_VERS" version="2.0">
<header><CREATION_DATE/><ORIGINATOR/></header><body><segment><metadata><OBJECT_NAME>ORBCOMM FM25</OBJECT_NAME><OBJECT_ID>1998-053E</OBJECT_ID><CENTER_NAME>EARTH</CENTER_NAME><REF_FRAME>TEME</REF_FRAME><TIME_SYSTEM>UTC</TIME_SYSTEM><MEAN_ELEMENT_THEORY>SGP4</MEAN_ELEMENT_THEORY></metadata><data><meanElements><EPOCH>2024-11-25T14:21:25.347456</EPOCH><MEAN_MOTION>14.37018386</MEAN_MOTION><ECCENTRICITY>.0003304</ECCENTRICITY><INCLINATION>45.0050</INCLINATION><RA_OF_ASC_NODE>151.9471</RA_OF_ASC_NODE><ARG_OF_PERICENTER>289.0161</ARG_OF_PERICENTER><MEAN_ANOMALY>71.0329</MEAN_ANOMALY></meanElements><tleParameters><EPHEMERIS_TYPE>0</EPHEMERIS_TYPE><CLASSIFICATION_TYPE>U</CLASSIFICATION_TYPE><NORAD_CAT_ID>25479</NORAD_CAT_ID><ELEMENT_SET_NO>999</ELEMENT_SET_NO><REV_AT_EPOCH>36844</REV_AT_EPOCH><BSTAR>.11161E-2</BSTAR><MEAN_MOTION_DOT>.32E-4</MEAN_MOTION_DOT><MEAN_MOTION_DDOT>0</MEAN_MOTION_DDOT></tleParameters></data></segment></body></omm>
<omm id="CCSDS_OMM_VERS" version="2.0">
<header><CREATION_DATE/><ORIGINATOR/></header><body><segment><metadata><OBJECT_NAME>ORBCOMM FM26</OBJECT_NAME><OBJECT_ID>1998-053F</OBJECT_ID><CENTER_NAME>EARTH</CENTER_NAME><REF_FRAME>TEME</REF_FRAME><TIME_SYSTEM>UTC</TIME_SYSTEM><MEAN_ELEMENT_THEORY>SGP4</MEAN_ELEMENT_THEORY></metadata><data><meanElements><EPOCH>2024-11-25T21:40:50.473344</EPOCH><MEAN_MOTION>14.36239730</MEAN_MOTION><ECCENTRICITY>.0005002</ECCENTRICITY><INCLINATION>45.0046</INCLINATION><RA_OF_ASC_NODE>145.6052</RA_OF_ASC_NODE><ARG_OF_PERICENTER>320.9524</ARG_OF_PERICENTER><MEAN_ANOMALY>39.0962</MEAN_ANOMALY></meanElements><tleParameters><EPHEMERIS_TYPE>0</EPHEMERIS_TYPE><CLASSIFICATION_TYPE>U</CLASSIFICATION_TYPE><NORAD_CAT_ID>25480</NORAD_CAT_ID><ELEMENT_SET_NO>999</ELEMENT_SET_NO><REV_AT_EPOCH>36841</REV_AT_EPOCH><BSTAR>.10598E-2</BSTAR><MEAN_MOTION_DOT>.2982E-4</MEAN_MOTION_DOT><MEAN_MOTION_DDOT>0</MEAN_MOTION_DDOT></tleParameters></data></segment></body></omm>
<omm id="CCSDS_OMM_VERS" version="2.0">
<header><CREATION_DATE/><ORIGINATOR/></header><body><segment><metadata><OBJECT_NAME>ORBCOMM FM27</OBJECT_NAME><OBJECT_ID>1998-053G</OBJECT_ID><CENTER_NAME>EARTH</CENTER_NAME><REF_FRAME>TEME</REF_FRAME><TIME_SYSTEM>UTC</TIME_SYSTEM><MEAN_ELEMENT_THEORY>SGP4</MEAN_ELEMENT_THEORY></metadata><data><meanElements><EPOCH>2024-11-25T20:46:52.208256</EPOCH><MEAN_MOTION>14.37015745</MEAN_MOTION><ECCENTRICITY>.0000992</ECCENTRICITY><INCLINATION>45.0033</INCLINATION><RA_OF_ASC_NODE>150.9328</RA_OF_ASC_NODE><ARG_OF_PERICENTER>172.9424</ARG_OF_PERICENTER><MEAN_ANOMALY>187.1438</MEAN_ANOMALY></meanElements><tleParameters><EPHEMERIS_TYPE>0</EPHEMERIS_TYPE><CLASSIFICATION_TYPE>U</CLASSIFICATION_TYPE><NORAD_CAT_ID>25481</NORAD_CAT_ID><ELEMENT_SET_NO>999</ELEMENT_SET_NO><REV_AT_EPOCH>36841</REV_AT_EPOCH><BSTAR>.11867E-2</BSTAR><MEAN_MOTION_DOT>.3411E-4</MEAN_MOTION_DOT><MEAN_MOTION_DDOT>0</MEAN_MOTION_DDOT></tleParameters></data></segment></body></omm>
<omm id="CCSDS_OMM_VERS" version="2.0">
<header><CREATION_DATE/><ORIGINATOR/></header><body><segment><metadata><OBJECT_NAME>ORBCOMM FM28</OBJECT_NAME><OBJECT_ID>1998-053H</OBJECT_ID><CENTER_NAME>EARTH</CENTER_NAME><REF_FRAME>TEME</REF_FRAME><TIME_SYSTEM>UTC</TIME_SYSTEM><MEAN_ELEMENT_THEORY>SGP4</MEAN_ELEMENT_THEORY></metadata><data><meanElements><EPOCH>2024-11-25T15:50:14.997120</EPOCH><MEAN_MOTION>14.37323721</MEAN_MOTION><ECCENTRICITY>.0002959</ECCENTRICITY><INCLINATION>45.0046</INCLINATION><RA_OF_ASC_NODE>89.7846</RA_OF_ASC_NODE><ARG_OF_PERICENTER>331.9107</ARG_OF_PERICENTER><MEAN_ANOMALY>28.1581</MEAN_ANOMALY></meanElements><tleParameters><EPHEMERIS_TYPE>0</EPHEMERIS_TYPE><CLASSIFICATION_TYPE>U</CLASSIFICATION_TYPE><NORAD_CAT_ID>25482</NORAD_CAT_ID><ELEMENT_SET_NO>999</ELEMENT_SET_NO><REV_AT_EPOCH>36906</REV_AT_EPOCH><BSTAR>.12462E-2</BSTAR><MEAN_MOTION_DOT>.3612E-4</MEAN_MOTION_DOT><MEAN_MOTION_DDOT>0</MEAN_MOTION_DDOT></tleParameters></data></segment></body></omm>
<omm id="CCSDS_OMM_VERS" version="2.0">
<header><CREATION_DATE/><ORIGINATOR/></header><body><segment><metadata><OBJECT_NAME>ORBCOMM FM30</OBJECT_NAME><OBJECT_ID>1999-065A</OBJECT_ID><CENTER_NAME>EARTH</CENTER_NAME><REF_FRAME>TEME</REF_FRAME><TIME_SYSTEM>UTC</TIME_SYSTEM><MEAN_ELEMENT_THEORY>SGP4</MEAN_ELEMENT_THEORY></metadata><data><meanElements><EPOCH>2024-11-25T11:57:25.639488</EPOCH><MEAN_MOTION>14.36397151</MEAN_MOTION><ECCENTRICITY>.0004915</ECCENTRICITY><INCLINATION>45.0323</INCLINATION><RA_OF_ASC_NODE>333.2420</RA_OF_ASC_NODE><ARG_OF_PERICENTER>49.7218</ARG_OF_PERICENTER><MEAN_ANOMALY>310.4059</MEAN_ANOMALY></meanElements><tleParameters><EPHEMERIS_TYPE>0</EPHEMERIS_TYPE><CLASSIFICATION_TYPE>U</CLASSIFICATION_TYPE><NORAD_CAT_ID>25980</NORAD_CAT_ID><ELEMENT_SET_NO>999</ELEMENT_SET_NO><REV_AT_EPOCH>30568</REV_AT_EPOCH><BSTAR>.10748E-2</BSTAR><MEAN_MOTION_DOT>.3036E-4</MEAN_MOTION_DOT><MEAN_MOTION_DDOT>0</MEAN_MOTION_DDOT></tleParameters></data></segment></body></omm>
<omm id="CCSDS_OMM_VERS" version="2.0">
<header><CREATION_DATE/><ORIGINATOR/></header><body><segment><metadata><OBJECT_NAME>ORBCOMM FM31</OBJECT_NAME><OBJECT_ID>1999-065B</OBJECT_ID><CENTER_NAME>EARTH</CENTER_NAME><REF_FRAME>TEME</REF_FRAME><TIME_SYSTEM>UTC</TIME_SYSTEM><MEAN_ELEMENT_THEORY>SGP4</MEAN_ELEMENT_THEORY></metadata><data><meanElements><EPOCH>2024-11-25T11:10:37.740576</EPOCH><MEAN_MOTION>14.36374518</MEAN_MOTION><ECCENTRICITY>.0001806</ECCENTRICITY><INCLINATION>45.0235</INCLINATION><RA_OF_ASC_NODE>326.9667</RA_OF_ASC_NODE><ARG_OF_PERICENTER>68.5276</ARG_OF_PERICENTER><MEAN_ANOMALY>291.5764</MEAN_ANOMALY></meanElements><tleParameters><EPHEMERIS_TYPE>0</EPHEMERIS_TYPE><CLASSIFICATION_TYPE>U</CLASSIFICATION_TYPE><NORAD_CAT_ID>25981</NORAD_CAT_ID><ELEMENT_SET_NO>999</ELEMENT_SET_NO><REV_AT_EPOCH>30470</REV_AT_EPOCH><BSTAR>.10856E-2</BSTAR><MEAN_MOTION_DOT>.3066E-4</MEAN_MOTION_DOT><MEAN_MOTION_DDOT>0</MEAN_MOTION_DDOT></tleParameters></data></segment></body></omm>
<omm id="CCSDS_OMM_VERS" version="2.0">
<header><CREATION_DATE/><ORIGINATOR/></header><body><segment><metadata><OBJECT_NAME>ORBCOMM FM32</OBJECT_NAME><OBJECT_ID>1999-065C</OBJECT_ID><CENTER_NAME>EARTH</CENTER_NAME><REF_FRAME>TEME</REF_FRAME><TIME_SYSTEM>UTC</TIME_SYSTEM><MEAN_ELEMENT_THEORY>SGP4</MEAN_ELEMENT_THEORY></metadata><data><meanElements><EPOCH>2024-11-25T09:00:54.093312</EPOCH><MEAN_MOTION>14.35396354</MEAN_MOTION><ECCENTRICITY>.0003574</ECCENTRICITY><INCLINATION>45.0160</INCLINATION><RA_OF_ASC_NODE>342.5885</RA_OF_ASC_NODE><ARG_OF_PERICENTER>81.5708</ARG_OF_PERICENTER><MEAN_ANOMALY>278.5544</MEAN_ANOMALY></meanElements><tleParameters><EPHEMERIS_TYPE>0</EPHEMERIS_TYPE><CLASSIFICATION_TYPE>U</CLASSIFICATION_TYPE><NORAD_CAT_ID>25982</NORAD_CAT_ID><ELEMENT_SET_NO>999</ELEMENT_SET_NO><REV_AT_EPOCH>30530</REV_AT_EPOCH><BSTAR>.12045E-2</BSTAR><MEAN_MOTION_DOT>.3349E-4</MEAN_MOTION_DOT><MEAN_MOTION_DDOT>0</MEAN_MOTION_DDOT></tleParameters></data></segment></body></omm>

</ndm>
